[{"OBJECT_NAME":"DELTA 2 R/B","OBJECT_ID":"1999-041E","EPOCH":"2026-03-02T22:17:30.369408","MEAN_MOTION":14.11812753,"ECCENTRICITY":0.05023546,"INCLINATION":51.7651,"RA_OF_ASC_NODE":328.2833,"ARG_OF_PERICENTER":328.4737,"MEAN_ANOMALY":28.6972,"EPHEMERIS_TYPE":0,"CLASSIFICATION_TYPE":"U","NORAD_CAT_ID":25876,"ELEMENT_SET_NO":999,"REV_AT_EPOCH":36207,"BSTAR":0.00031260384,"MEAN_MOTION_DOT":1.709e-5,"MEAN_MOTION_DDOT":0},{"OBJECT_NAME":"HELIOS 1B","OBJECT_ID":"1999-064A","EPOCH":"2026-03-02T17:15:08.823168","MEAN_MOTION":14.87662698,"ECCENTRICITY":0.00025092,"INCLINATION":98.1705,"RA_OF_ASC_NODE":323.7571,"ARG_OF_PERICENTER":84.3567,"MEAN_ANOMALY":275.7935,"EPHEMERIS_TYPE":0,"CLASSIFICATION_TYPE":"U","NORAD_CAT_ID":25977,"ELEMENT_SET_NO":999,"REV_AT_EPOCH":68422,"BSTAR":0.00024945955,"MEAN_MOTION_DOT":2.212e-5,"MEAN_MOTION_DDOT":0},{"OBJECT_NAME":"TERRA","OBJECT_ID":"1999-068A","EPOCH":"2026-03-02T22:21:59.512320","MEAN_MOTION":14.6100609,"ECCENTRICITY":0.00022428,"INCLINATION":97.9608,"RA_OF_ASC_NODE":115.6244,"ARG_OF_PERICENTER":168.2978,"MEAN_ANOMALY":236.4379,"EPHEMERIS_TYPE":0,"CLASSIFICATION_TYPE":"U","NORAD_CAT_ID":25994,"ELEMENT_SET_NO":999,"REV_AT_EPOCH":39409,"BSTAR":0.00011721923,"MEAN_MOTION_DOT":5.31e-6,"MEAN_MOTION_DDOT":0},{"OBJECT_NAME":"SL-16 R/B","OBJECT_ID":"2000-006B","EPOCH":"2026-03-02T14:15:28.689984","MEAN_MOTION":14.15823865,"ECCENTRICITY":0.0017251,"INCLINATION":71.0013,"RA_OF_ASC_NODE":112.7581,"ARG_OF_PERICENTER":199.9346,"MEAN_ANOMALY":160.1105,"EPHEMERIS_TYPE":0,"CLASSIFICATION_TYPE":"U","NORAD_CAT_ID":26070,"ELEMENT_SET_NO":999,"REV_AT_EPOCH":34755,"BSTAR":0.00015675,"MEAN_MOTION_DOT":2.61e-6,"MEAN_MOTION_DDOT":0},{"OBJECT_NAME":"TITAN 4B R/B","OBJECT_ID":"2000-047B","EPOCH":"2026-03-02T22:30:48.553344","MEAN_MOTION":15.09482652,"ECCENTRICITY":0.00379264,"INCLINATION":67.9882,"RA_OF_ASC_NODE":59.4944,"ARG_OF_PERICENTER":43.442,"MEAN_ANOMALY":316.9706,"EPHEMERIS_TYPE":0,"CLASSIFICATION_TYPE":"U","NORAD_CAT_ID":26474,"ELEMENT_SET_NO":999,"REV_AT_EPOCH":39189,"BSTAR":0.00030276522,"MEAN_MOTION_DOT":4.81e-5,"MEAN_MOTION_DDOT":0},{"OBJECT_NAME":"ENVISAT","OBJECT_ID":"2002-009A","EPOCH":"2026-03-02T20:36:28.375200","MEAN_MOTION":14.39033896,"ECCENTRICITY":0.0001346,"INCLINATION":98.3717,"RA_OF_ASC_NODE":15.6191,"ARG_OF_PERICENTER":84.9534,"MEAN_ANOMALY":290.497,"EPHEMERIS_TYPE":0,"CLASSIFICATION_TYPE":"U","NORAD_CAT_ID":27386,"ELEMENT_SET_NO":999,"REV_AT_EPOCH":25819,"BSTAR":6.4555552e-5,"MEAN_MOTION_DOT":1.57e-6,"MEAN_MOTION_DDOT":0},{"OBJECT_NAME":"IDEFIX & ARIANE 42P R/B","OBJECT_ID":"2002-021B","EPOCH":"2026-03-02T18:48:17.290944","MEAN_MOTION":14.31020279,"ECCENTRICITY":0.00111815,"INCLINATION":98.5864,"RA_OF_ASC_NODE":0.4726,"ARG_OF_PERICENTER":203.1585,"MEAN_ANOMALY":156.9095,"EPHEMERIS_TYPE":0,"CLASSIFICATION_TYPE":"U","NORAD_CAT_ID":27422,"ELEMENT_SET_NO":999,"REV_AT_EPOCH":24303,"BSTAR":0.00014692373,"MEAN_MOTION_DOT":3.43e-6,"MEAN_MOTION_DDOT":0},{"OBJECT_NAME":"AQUA","OBJECT_ID":"2002-022A","EPOCH":"2026-03-02T23:21:44.271648","MEAN_MOTION":14.6195693,"ECCENTRICITY":6.824e-5,"INCLINATION":98.4163,"RA_OF_ASC_NODE":29.2166,"ARG_OF_PERICENTER":57.1375,"MEAN_ANOMALY":343.6162,"EPHEMERIS_TYPE":0,"CLASSIFICATION_TYPE":"U","NORAD_CAT_ID":27424,"ELEMENT_SET_NO":999,"REV_AT_EPOCH":26775,"BSTAR":0.00025981516,"MEAN_MOTION_DOT":1.252e-5,"MEAN_MOTION_DDOT":0},{"OBJECT_NAME":"CZ-4B R/B","OBJECT_ID":"2002-024C","EPOCH":"2026-03-02T19:09:25.979040","MEAN_MOTION":14.14546123,"ECCENTRICITY":0.00507903,"INCLINATION":98.8854,"RA_OF_ASC_NODE":115.2392,"ARG_OF_PERICENTER":43.5863,"MEAN_ANOMALY":74.0923,"EPHEMERIS_TYPE":0,"CLASSIFICATION_TYPE":"U","NORAD_CAT_ID":27432,"ELEMENT_SET_NO":999,"REV_AT_EPOCH":22826,"BSTAR":5.0113831e-5,"MEAN_MOTION_DOT":5.3e-7,"MEAN_MOTION_DDOT":0},{"OBJECT_NAME":"MIDORI II (ADEOS-II)","OBJECT_ID":"2002-056A","EPOCH":"2026-03-02T20:57:26.358336","MEAN_MOTION":14.29278656,"ECCENTRICITY":0.00018279,"INCLINATION":98.7758,"RA_OF_ASC_NODE":20.3043,"ARG_OF_PERICENTER":52.5235,"MEAN_ANOMALY":307.6112,"EPHEMERIS_TYPE":0,"CLASSIFICATION_TYPE":"U","NORAD_CAT_ID":27597,"ELEMENT_SET_NO":999,"REV_AT_EPOCH":20932,"BSTAR":0.00015384604,"MEAN_MOTION_DOT":3.46e-6,"MEAN_MOTION_DDOT":0},{"OBJECT_NAME":"H-2A R/B","OBJECT_ID":"2002-056E","EPOCH":"2026-03-02T20:48:26.290944","MEAN_MOTION":14.33755244,"ECCENTRICITY":0.00700736,"INCLINATION":98.319,"RA_OF_ASC_NODE":22.4928,"ARG_OF_PERICENTER":180.9596,"MEAN_ANOMALY":233.8258,"EPHEMERIS_TYPE":0,"CLASSIFICATION_TYPE":"U","NORAD_CAT_ID":27601,"ELEMENT_SET_NO":999,"REV_AT_EPOCH":21313,"BSTAR":0.00012188546,"MEAN_MOTION_DOT":3.06e-6,"MEAN_MOTION_DDOT":0},{"OBJECT_NAME":"CZ-4B R/B","OBJECT_ID":"2003-049C","EPOCH":"2026-03-02T22:03:50.080896","MEAN_MOTION":14.55012218,"ECCENTRICITY":0.00470429,"INCLINATION":98.6871,"RA_OF_ASC_NODE":56.5588,"ARG_OF_PERICENTER":252.0119,"MEAN_ANOMALY":107.5946,"EPHEMERIS_TYPE":0,"CLASSIFICATION_TYPE":"U","NORAD_CAT_ID":28059,"ELEMENT_SET_NO":999,"REV_AT_EPOCH":18561,"BSTAR":0.00012596528,"MEAN_MOTION_DOT":4.98e-6,"MEAN_MOTION_DDOT":0},{"OBJECT_NAME":"CZ-2C R/B","OBJECT_ID":"2004-012C","EPOCH":"2026-03-02T16:47:01.749984","MEAN_MOTION":15.63563856,"ECCENTRICITY":0.00133943,"INCLINATION":97.7249,"RA_OF_ASC_NODE":126.3342,"ARG_OF_PERICENTER":338.0425,"MEAN_ANOMALY":22.0257,"EPHEMERIS_TYPE":0,"CLASSIFICATION_TYPE":"U","NORAD_CAT_ID":28222,"ELEMENT_SET_NO":999,"REV_AT_EPOCH":20318,"BSTAR":0.00062270846,"MEAN_MOTION_DOT":0.00058146,"MEAN_MOTION_DDOT":0},{"OBJECT_NAME":"SL-16 R/B","OBJECT_ID":"2004-021B","EPOCH":"2026-03-02T22:50:06.418752","MEAN_MOTION":14.14599719,"ECCENTRICITY":0.00036931,"INCLINATION":70.9992,"RA_OF_ASC_NODE":246.634,"ARG_OF_PERICENTER":23.2167,"MEAN_ANOMALY":336.9122,"EPHEMERIS_TYPE":0,"CLASSIFICATION_TYPE":"U","NORAD_CAT_ID":28353,"ELEMENT_SET_NO":999,"REV_AT_EPOCH":12188,"BSTAR":-2.8718265e-5,"MEAN_MOTION_DOT":-1.03e-6,"MEAN_MOTION_DDOT":0},{"OBJECT_NAME":"CZ-4B R/B","OBJECT_ID":"2004-035C","EPOCH":"2026-03-02T15:28:37.449696","MEAN_MOTION":15.28910749,"ECCENTRICITY":0.00318652,"INCLINATION":97.351,"RA_OF_ASC_NODE":95.9723,"ARG_OF_PERICENTER":357.0727,"MEAN_ANOMALY":3.0321,"EPHEMERIS_TYPE":0,"CLASSIFICATION_TYPE":"U","NORAD_CAT_ID":28415,"ELEMENT_SET_NO":999,"REV_AT_EPOCH":17883,"BSTAR":0.000356429,"MEAN_MOTION_DOT":0.0001009,"MEAN_MOTION_DDOT":0},{"OBJECT_NAME":"CZ-2C R/B","OBJECT_ID":"2004-046B","EPOCH":"2026-03-02T18:05:58.418304","MEAN_MOTION":14.26989516,"ECCENTRICITY":0.01394676,"INCLINATION":98.1988,"RA_OF_ASC_NODE":337.1695,"ARG_OF_PERICENTER":174.9003,"MEAN_ANOMALY":185.3638,"EPHEMERIS_TYPE":0,"CLASSIFICATION_TYPE":"U","NORAD_CAT_ID":28480,"ELEMENT_SET_NO":999,"REV_AT_EPOCH":10751,"BSTAR":7.2804101e-5,"MEAN_MOTION_DOT":1.56e-6,"MEAN_MOTION_DDOT":0},{"OBJECT_NAME":"ARIANE 5 R/B","OBJECT_ID":"2004-049H","EPOCH":"2026-03-02T21:29:58.394400","MEAN_MOTION":14.85250512,"ECCENTRICITY":0.00844318,"INCLINATION":98.2615,"RA_OF_ASC_NODE":230.099,"ARG_OF_PERICENTER":13.934,"MEAN_ANOMALY":346.4176,"EPHEMERIS_TYPE":0,"CLASSIFICATION_TYPE":"U","NORAD_CAT_ID":28499,"ELEMENT_SET_NO":999,"REV_AT_EPOCH":14478,"BSTAR":0.00011025477,"MEAN_MOTION_DOT":9.43e-6,"MEAN_MOTION_DDOT":0}]
